{"type": "FeatureCollection", "features": [ {"type": "Feature", "properties": {"norad_id": 43262, "name": "GAOFEN-1 04", "group": "resource", "lat": -36.86810421310538, "lon": 48.65683101866783, "alt_km": 646.9621590752304, "timestamp": "2025-12-10T16:57:11.292311+00:00", "meta": {"OBJECT_NAME": "GAOFEN-1 04", "OBJECT_ID": "2018-031D", "EPOCH": "2025-12-10T12:14:31.921152", "MEAN_MOTION": 14.7644134, "ECCENTRICITY": 0.0001167, "INCLINATION": 98.0805, "RA_OF_ASC_NODE": 42.3443, "ARG_OF_PERICENTER": 54.1655, "MEAN_ANOMALY": 305.9663, "EPHEMERIS_TYPE": 0, "CLASSIFICATION_TYPE": "U", "NORAD_CAT_ID": 43262, "ELEMENT_SET_NO": 999, "REV_AT_EPOCH": 41484, "BSTAR": 0.00017734, "MEAN_MOTION_DOT": 1.182e-05, "MEAN_MOTION_DDOT": 0}, "tle": {"line1": "1 43262U 18031D   25344.51009168  .00001182  00000+0  17734-3 0  9994", "line2": "2 43262  98.0805  42.3443 0001167  54.1655 305.9663 14.76441340414847"}}, "geometry": {"type": "Point", "coordinates": [48.65683101866783, -36.86810421310538]}}, {"type": "Feature", "properties": {"norad_id": 43437, "name": "SENTINEL-3B", "group": "resource", "lat": 46.47955578868228, "lon": -120.88041091257925, "alt_km": 797.5463050882927, "timestamp": "2025-12-10T16:57:11.292321+00:00", "meta": {"OBJECT_NAME": "SENTINEL-3B", "OBJECT_ID": "2018-039A", "EPOCH": "2025-12-10T11:17:01.773024", "MEAN_MOTION": 14.26741564, "ECCENTRICITY": 0.0001563, "INCLINATION": 98.6269, "RA_OF_ASC_NODE": 49.6878, "ARG_OF_PERICENTER": 105.1212, "MEAN_ANOMALY": 255.0141, "EPHEMERIS_TYPE": 0, "CLASSIFICATION_TYPE": "U", "NORAD_CAT_ID": 43437, "ELEMENT_SET_NO": 999, "REV_AT_EPOCH": 39721, "BSTAR": 0.00011946, "MEAN_MOTION_DOT": 2.45e-06, "MEAN_MOTION_DDOT": 0}, "tle": {"line1": "1 43437U 18039A   25344.47015941  .00000245  00000+0  11946-3 0  9995", "line2": "2 43437  98.6269  49.6878 0001563 105.1212 255.0141 14.26741564397212"}}, "geometry": {"type": "Point", "coordinates": [-120.88041091257925, 46.47955578868228]}}, {"type": "Feature", "properties": {"norad_id": 43461, "name": "GAOFEN-5 01", "group": "resource", "lat": -54.88075914825221, "lon": 115.46188630742739, "alt_km": 699.1854641930049, "timestamp": "2025-12-10T16:57:11.292331+00:00", "meta": {"OBJECT_NAME": "GAOFEN-5 01", "OBJECT_ID": "2018-043A", "EPOCH": "2025-12-10T10:56:38.203008", "MEAN_MOTION": 14.60406317, "ECCENTRICITY": 0.0001109, "INCLINATION": 98.4323, "RA_OF_ASC_NODE": 307.3833, "ARG_OF_PERICENTER": 349.3641, "MEAN_ANOMALY": 10.7535, "EPHEMERIS_TYPE": 0, "CLASSIFICATION_TYPE": "U", "NORAD_CAT_ID": 43461, "ELEMENT_SET_NO": 999, "REV_AT_EPOCH": 40414, "BSTAR": 0.00018568, "MEAN_MOTION_DOT": 8.5e-06, "MEAN_MOTION_DDOT": 0}, "tle": {"line1": "1 43461U 18043A   25344.45599772  .00000850  00000+0  18568-3 0  9993", "line2": "2 43461  98.4323 307.3833 0001109 349.3641  10.7535 14.60406317404143"}}, "geometry": {"type": "Point", "coordinates": [115.46188630742739, -54.88075914825221]}}, {"type": "Feature", "properties": {"norad_id": 43484, "name": "GAOFEN-6", "group": "resource", "lat": 65.4547560527788, "lon": -113.48499838463674, "alt_km": 627.1041303043075, "timestamp": "2025-12-10T16:57:11.292341+00:00", "meta": {"OBJECT_NAME": "GAOFEN-6", "OBJECT_ID": "2018-048A", "EPOCH": "2025-12-10T11:33:49.610016", "MEAN_MOTION": 14.76560299, "ECCENTRICITY": 0.0013296, "INCLINATION": 97.8029, "RA_OF_ASC_NODE": 48.8243, "ARG_OF_PERICENTER": 70.0136, "MEAN_ANOMALY": 290.2505, "EPHEMERIS_TYPE": 0, "CLASSIFICATION_TYPE": "U", "NORAD_CAT_ID": 43484, "ELEMENT_SET_NO": 999, "REV_AT_EPOCH": 40554, "BSTAR": 0.00023346, "MEAN_MOTION_DOT": 1.581e-05, "MEAN_MOTION_DDOT": 0}, "tle": {"line1": "1 43484U 18048A   25344.48182419  .00001581  00000+0  23346-3 0  9994", "line2": "2 43484  97.8029  48.8243 0013296  70.0136 290.2505 14.76560299405547"}}, "geometry": {"type": "Point", "coordinates": [-113.48499838463674, 65.4547560527788]}}, {"type": "Feature", "properties": {"norad_id": 43585, "name": "GAOFEN-11 01", "group": "resource", "lat": 69.53775297006156, "lon": -112.6668201555169, "alt_km": 415.0724453111434, "timestamp": "2025-12-10T16:57:11.292371+00:00", "meta": {"OBJECT_NAME": "GAOFEN-11 01", "OBJECT_ID": "2018-063A", "EPOCH": "2025-12-10T10:16:56.531712", "MEAN_MOTION": 15.49119239, "ECCENTRICITY": 0.0004511, "INCLINATION": 97.1556, "RA_OF_ASC_NODE": 47.382, "ARG_OF_PERICENTER": 324.9271, "MEAN_ANOMALY": 35.1683, "EPHEMERIS_TYPE": 0, "CLASSIFICATION_TYPE": "U", "NORAD_CAT_ID": 43585, "ELEMENT_SET_NO": 999, "REV_AT_EPOCH": 41106, "BSTAR": 0.00046049, "MEAN_MOTION_DOT": 0.00024982, "MEAN_MOTION_DDOT": 0}, "tle": {"line1": "1 43585U 18063A   25344.42843208  .00024982  00000+0  46049-3 0  9992", "line2": "2 43585  97.1556  47.3820 0004511 324.9271  35.1683 15.49119239411065"}}, "geometry": {"type": "Point", "coordinates": [-112.6668201555169, 69.53775297006156]}}, {"type": "Feature", "properties": {"norad_id": 43613, "name": "ICESAT-2", "group": "resource", "lat": -1.896729134714171, "lon": -119.7450556782385, "alt_km": 485.864215276456, "timestamp": "2025-12-10T16:57:11.292383+00:00", "meta": {"OBJECT_NAME": "ICESAT-2", "OBJECT_ID": "2018-070A", "EPOCH": "2025-12-10T12:14:49.339392", "MEAN_MOTION": 15.28303251, "ECCENTRICITY": 0.000249, "INCLINATION": 92.0044, "RA_OF_ASC_NODE": 240.1356, "ARG_OF_PERICENTER": 154.5636, "MEAN_ANOMALY": 205.5737, "EPHEMERIS_TYPE": 0, "CLASSIFICATION_TYPE": "U", "NORAD_CAT_ID": 43613, "ELEMENT_SET_NO": 999, "REV_AT_EPOCH": 40364, "BSTAR": 0.00066295, "MEAN_MOTION_DOT": 0.00018288, "MEAN_MOTION_DDOT": 0}, "tle": {"line1": "1 43613U 18070A   25344.51029328  .00018288  00000+0  66295-3 0  9998", "line2": "2 43613  92.0044 240.1356 0002490 154.5636 205.5737 15.28303251403640"}}, "geometry": {"type": "Point", "coordinates": [-119.7450556782385, -1.896729134714171]}}, {"type": "Feature", "properties": {"norad_id": 43719, "name": "HYSIS", "group": "resource", "lat": 46.03382530279337, "lon": -123.91217907772779, "alt_km": 629.4286427238976, "timestamp": "2025-12-10T16:57:11.292393+00:00", "meta": {"OBJECT_NAME": "HYSIS", "OBJECT_ID": "2018-096A", "EPOCH": "2025-12-10T11:28:48.525888", "MEAN_MOTION": 14.78635714, "ECCENTRICITY": 0.0001501, "INCLINATION": 98.0095, "RA_OF_ASC_NODE": 47.4669, "ARG_OF_PERICENTER": 55.5076, "MEAN_ANOMALY": 304.6276, "EPHEMERIS_TYPE": 0, "CLASSIFICATION_TYPE": "U", "NORAD_CAT_ID": 43719, "ELEMENT_SET_NO": 999, "REV_AT_EPOCH": 37953, "BSTAR": 0.00031658, "MEAN_MOTION_DOT": 2.267e-05, "MEAN_MOTION_DDOT": 0}, "tle": {"line1": "1 43719U 18096A   25344.47833942  .00002267  00000+0  31658-3 0  9998", "line2": "2 43719  98.0095  47.4669 0001501  55.5076 304.6276 14.78635714379539"}}, "geometry": {"type": "Point", "coordinates": [-123.91217907772779, 46.03382530279337]}}, {"type": "Feature", "properties": {"norad_id": 43783, "name": "KAZSTSAT", "group": "resource", "lat": -37.863633401074644, "lon": -165.8649544394552, "alt_km": 577.5317117442473, "timestamp": "2025-12-10T16:57:11.292403+00:00", "meta": {"OBJECT_NAME": "KAZSTSAT", "OBJECT_ID": "2018-099AB", "EPOCH": "2025-12-10T07:58:27.236352", "MEAN_MOTION": 14.99341597, "ECCENTRICITY": 0.0006014, "INCLINATION": 97.4558, "RA_OF_ASC_NODE": 19.6206, "ARG_OF_PERICENTER": 340.3346, "MEAN_ANOMALY": 19.7645, "EPHEMERIS_TYPE": 0, "CLASSIFICATION_TYPE": "U", "NORAD_CAT_ID": 43783, "ELEMENT_SET_NO": 999, "REV_AT_EPOCH": 38300, "BSTAR": 0.00019535, "MEAN_MOTION_DOT": 2.332e-05, "MEAN_MOTION_DDOT": 0}, "tle": {"line1": "1 43783U 18099AB  25344.33225968  .00002332  00000+0  19535-3 0  9993", "line2": "2 43783  97.4558  19.6206 0006014 340.3346  19.7645 14.99341597383001"}}, "geometry": {"type": "Point", "coordinates": [-165.8649544394552, -37.863633401074644]}}, {"type": "Feature", "properties": {"norad_id": 43831, "name": "SAUDISAT 5A", "group": "resource", "lat": 76.59636755381842, "lon": 12.214000704489171, "alt_km": 473.63266378128355, "timestamp": "2025-12-10T16:57:11.292413+00:00", "meta": {"OBJECT_NAME": "SAUDISAT 5A", "OBJECT_ID": "2018-102A", "EPOCH": "2025-12-10T10:18:47.406240", "MEAN_MOTION": 15.25610132, "ECCENTRICITY": 0.0011813, "INCLINATION": 97.3352, "RA_OF_ASC_NODE": 44.665, "ARG_OF_PERICENTER": 83.245, "MEAN_ANOMALY": 277.0132, "EPHEMERIS_TYPE": 0, "CLASSIFICATION_TYPE": "U", "NORAD_CAT_ID": 43831, "ELEMENT_SET_NO": 999, "REV_AT_EPOCH": 38687, "BSTAR": 0.00035817, "MEAN_MOTION_DOT": 9.051e-05, "MEAN_MOTION_DDOT": 0}, "tle": {"line1": "1 43831U 18102A   25344.42971535  .00009051  00000+0  35817-3 0  9996", "line2": "2 43831  97.3352  44.6650 0011813  83.2450 277.0132 15.25610132386871"}}, "geometry": {"type": "Point", "coordinates": [12.214000704489171, 76.59636755381842]}}, {"type": "Feature", "properties": {"norad_id": 43833, "name": "SAUDISAT 5B", "group": "resource", "lat": 50.79862195228834, "lon": -123.22941300808101, "alt_km": 477.06097023826715, "timestamp": "2025-12-10T16:57:11.292425+00:00", "meta": {"OBJECT_NAME": "SAUDISAT 5B", "OBJECT_ID": "2018-102C", "EPOCH": "2025-12-10T10:05:51.497952", "MEAN_MOTION": 15.25962974, "ECCENTRICITY": 0.0012513, "INCLINATION": 97.3447, "RA_OF_ASC_NODE": 47.3907, "ARG_OF_PERICENTER": 85.6786, "MEAN_ANOMALY": 274.5882, "EPHEMERIS_TYPE": 0, "CLASSIFICATION_TYPE": "U", "NORAD_CAT_ID": 43833, "ELEMENT_SET_NO": 999, "REV_AT_EPOCH": 38698, "BSTAR": 0.00033765, "MEAN_MOTION_DOT": 8.621e-05, "MEAN_MOTION_DDOT": 0}, "tle": {"line1": "1 43833U 18102C   25344.42073493  .00008621  00000+0  33765-3 0  9996", "line2": "2 43833  97.3447  47.3907 0012513  85.6786 274.5882 15.25962974386989"}}, "geometry": {"type": "Point", "coordinates": [-123.22941300808101, 50.79862195228834]}}]}